0 FENGYUN 1C DEB
1 36644U 99025DXN 13288.45414800  .00000572  00000-0  71025-3 0  2047
2 36644 098.4047 293.3004 0300237 229.4326 128.1268 13.50960610196196
0 FENGYUN 1C DEB
1 36644U 99025DXN 13291.78692856  .00000673  00000-0  82704-3 0  2055
2 36644 098.4030 296.1209 0300518 221.1638 136.6758 13.50967657196649
